{
  "type": "FeatureCollection",
  "features": [
    {
      "type": "Feature",
      "geometry": {
        "coordinates": [
          38.764744,
          9.009337
        ],
        "type": "Point"
      },
      "properties": {
        "_umap_options": {
          "iconClass": "Drop",
          "iconSize": 64,
          "iconOpacity": 1,
          "color": "#0c5bcd",
          "iconUrl": "https://res.cloudinary.com/dzhobawko/image/upload/v1772219290/everleaf/images/everleaf-logo.png"
        },
        "name": "EverLeaf Medical Center",
        "description": "Bole Branch"
      },
      "id": "pC4Nc"
    },
    {
      "type": "Feature",
      "geometry": {
        "coordinates": [
          38.768842,
          9.015101
        ],
        "type": "Point"
      },
      "properties": {
        "_umap_options": {
          "color": "#0c5bcd",
          "iconClass": "Drop",
          "iconSize": 64,
          "iconUrl": "https://res.cloudinary.com/dzhobawko/image/upload/v1772219290/everleaf/images/everleaf-logo.png"
        },
        "name": "EverLeaf Medical Center",
        "description": "ECA Branch"
      },
      "id": "m9Va5"
    },
    {
      "type": "Feature",
      "geometry": {
        "coordinates": [
          [
            38.769109,
            9.015278
          ],
          [
            38.76996,
            9.015149
          ],
          [
            38.769919,
            9.014831
          ],
          [
            38.770007,
            9.014822
          ],
          [
            38.770036,
            9.01507
          ],
          [
            38.770163,
            9.016157
          ],
          [
            38.770074,
            9.016186
          ],
          [
            38.76996,
            9.015149
          ],
          [
            38.769817,
            9.01408
          ],
          [
            38.769574,
            9.012032
          ],
          [
            38.769399,
            9.010748
          ],
          [
            38.769503,
            9.010742
          ],
          [
            38.769516,
            9.01087
          ],
          [
            38.769581,
            9.011501
          ],
          [
            38.7695,
            9.011521
          ],
          [
            38.769399,
            9.010748
          ],
          [
            38.76934,
            9.010533
          ],
          [
            38.769252,
            9.010441
          ],
          [
            38.763948,
            9.01099
          ],
          [
            38.763606,
            9.01099
          ],
          [
            38.763145,
            9.010957
          ],
          [
            38.76258,
            9.011047
          ],
          [
            38.762695,
            9.010839
          ],
          [
            38.764328,
            9.009089
          ],
          [
            38.766073,
            9.007233
          ],
          [
            38.766156,
            9.007314
          ],
          [
            38.765379,
            9.008171
          ],
          [
            38.76462,
            9.008958
          ],
          [
            38.764425,
            9.009189
          ],
          [
            38.76468,
            9.009527
          ]
        ],
        "type": "LineString"
      },
      "properties": {
        "_umap_options": {
          "route": {
            "profile": "driving-car",
            "preference": "recommended",
            "elevation": false,
            "coordinates": [
              [
                38.769121,
                9.015366
              ],
              [
                38.770044,
                9.015069
              ],
              [
                38.769486,
                9.010873
              ],
              [
                38.764379,
                9.009135
              ],
              [
                38.764722,
                9.009496
              ]
            ]
          }
        }
      },
      "id": "IjOXX"
    },
    {
      "type": "Feature",
      "geometry": {
        "coordinates": [
          38.780783,
          9.002587
        ],
        "type": "Point"
      },
      "properties": {
        "_umap_options": {
          "color": "#0c5bcd",
          "iconClass": "Drop",
          "iconSize": 64,
          "iconUrl": "https://res.cloudinary.com/dzhobawko/image/upload/v1772219290/everleaf/images/everleaf-logo.png"
        },
        "name": "EverLeaf Medical Center",
        "description": "Namiba Branch"
      },
      "id": "NwjH1"
    },
    {
      "type": "Feature",
      "geometry": {
        "coordinates": [
          [
            38.780903,
            9.00294
          ],
          [
            38.781946,
            9.001808
          ],
          [
            38.782167,
            9.001592
          ],
          [
            38.782853,
            9.000837
          ],
          [
            38.783529,
            9.000211
          ],
          [
            38.783311,
            8.999927
          ],
          [
            38.782914,
            8.99945
          ],
          [
            38.782776,
            8.999325
          ],
          [
            38.782462,
            8.99908
          ],
          [
            38.782279,
            8.998967
          ],
          [
            38.782222,
            8.998867
          ],
          [
            38.7822,
            8.995689
          ],
          [
            38.782178,
            8.995193
          ],
          [
            38.782173,
            8.993487
          ],
          [
            38.782146,
            8.991753
          ],
          [
            38.781605,
            8.991956
          ],
          [
            38.780466,
            8.992245
          ],
          [
            38.777098,
            8.992864
          ],
          [
            38.776708,
            8.992924
          ],
          [
            38.775994,
            8.99317
          ],
          [
            38.775594,
            8.99336
          ],
          [
            38.775406,
            8.993465
          ],
          [
            38.774993,
            8.993729
          ],
          [
            38.77437,
            8.994241
          ],
          [
            38.773288,
            8.995327
          ],
          [
            38.772648,
            8.996118
          ],
          [
            38.772511,
            8.996401
          ],
          [
            38.772248,
            8.996812
          ],
          [
            38.77178,
            8.997647
          ],
          [
            38.771294,
            8.998586
          ],
          [
            38.771029,
            8.99902
          ],
          [
            38.770641,
            8.999755
          ],
          [
            38.770409,
            9.000146
          ],
          [
            38.7698,
            9.00128
          ],
          [
            38.76939,
            9.001985
          ],
          [
            38.768984,
            9.002746
          ],
          [
            38.768565,
            9.003484
          ],
          [
            38.767375,
            9.005698
          ],
          [
            38.767105,
            9.006148
          ],
          [
            38.766947,
            9.006389
          ],
          [
            38.766396,
            9.007044
          ],
          [
            38.765379,
            9.008171
          ],
          [
            38.76462,
            9.008958
          ],
          [
            38.764425,
            9.009189
          ],
          [
            38.764721,
            9.009581
          ]
        ],
        "type": "LineString"
      },
      "properties": {
        "_umap_options": {
          "route": {
            "profile": "driving-car",
            "preference": "recommended",
            "elevation": false,
            "coordinates": [
              [
                38.780816,
                9.002862
              ],
              [
                38.764722,
                9.00958
              ]
            ]
          }
        }
      },
      "id": "ER8KZ"
    },
    {
      "type": "Feature",
      "geometry": {
        "coordinates": [
          [
            38.780914,
            9.002927
          ],
          [
            38.782338,
            9.001397
          ],
          [
            38.782411,
            9.001472
          ],
          [
            38.781935,
            9.001955
          ],
          [
            38.781032,
            9.002961
          ],
          [
            38.780688,
            9.003318
          ],
          [
            38.780366,
            9.003708
          ],
          [
            38.779863,
            9.004176
          ],
          [
            38.779518,
            9.004456
          ],
          [
            38.778082,
            9.005331
          ],
          [
            38.777775,
            9.005554
          ],
          [
            38.777507,
            9.005799
          ],
          [
            38.777405,
            9.005921
          ],
          [
            38.777182,
            9.00624
          ],
          [
            38.775937,
            9.008502
          ],
          [
            38.775716,
            9.008882
          ],
          [
            38.775178,
            9.009883
          ],
          [
            38.774928,
            9.010452
          ],
          [
            38.774842,
            9.010827
          ],
          [
            38.774908,
            9.010931
          ],
          [
            38.774915,
            9.010995
          ],
          [
            38.774903,
            9.011059
          ],
          [
            38.774873,
            9.011116
          ],
          [
            38.774819,
            9.011165
          ],
          [
            38.774732,
            9.0112
          ],
          [
            38.774667,
            9.0112
          ],
          [
            38.774605,
            9.011181
          ],
          [
            38.774513,
            9.0111
          ],
          [
            38.774278,
            9.010965
          ],
          [
            38.773859,
            9.010774
          ],
          [
            38.773712,
            9.011087
          ],
          [
            38.773249,
            9.012212
          ],
          [
            38.772935,
            9.012925
          ],
          [
            38.772743,
            9.013295
          ],
          [
            38.772134,
            9.014314
          ],
          [
            38.771637,
            9.015033
          ],
          [
            38.771201,
            9.015513
          ],
          [
            38.770763,
            9.01582
          ],
          [
            38.770163,
            9.016157
          ],
          [
            38.769819,
            9.01628
          ],
          [
            38.769363,
            9.016382
          ],
          [
            38.769281,
            9.015256
          ],
          [
            38.768938,
            9.015301
          ]
        ],
        "type": "LineString"
      },
      "properties": {
        "_umap_options": {
          "route": {
            "profile": "driving-car",
            "preference": "recommended",
            "elevation": false,
            "coordinates": [
              [
                38.780907,
                9.00292
              ],
              [
                38.768917,
                9.015149
              ]
            ]
          }
        }
      },
      "id": "kGjFD"
    },
    {
      "type": "Feature",
      "geometry": {
        "coordinates": [
          38.834063,
          9.03722
        ],
        "type": "Point"
      },
      "properties": {
        "_umap_options": {
          "color": "#0c5bcd",
          "iconClass": "Drop",
          "iconUrl": "https://res.cloudinary.com/dzhobawko/image/upload/v1772219290/everleaf/images/everleaf-logo.png"
        },
        "name": "EverLeaf Medical Center",
        "description": "Kotebe Branch"
      },
      "id": "loiHJ"
    },
    {
      "type": "Feature",
      "geometry": {
        "coordinates": [
          [
            38.834021,
            9.037032
          ],
          [
            38.833807,
            9.037015
          ],
          [
            38.833543,
            9.037031
          ],
          [
            38.833113,
            9.037122
          ],
          [
            38.832176,
            9.037428
          ],
          [
            38.831621,
            9.037576
          ],
          [
            38.831317,
            9.037632
          ],
          [
            38.831098,
            9.037642
          ],
          [
            38.830924,
            9.037623
          ],
          [
            38.830764,
            9.03758
          ],
          [
            38.830507,
            9.037471
          ],
          [
            38.830394,
            9.037399
          ],
          [
            38.830172,
            9.037216
          ],
          [
            38.829355,
            9.036414
          ],
          [
            38.828851,
            9.035975
          ],
          [
            38.828084,
            9.035399
          ],
          [
            38.82731,
            9.034878
          ],
          [
            38.826997,
            9.034725
          ],
          [
            38.826579,
            9.034607
          ],
          [
            38.824471,
            9.034269
          ],
          [
            38.824146,
            9.034198
          ],
          [
            38.823886,
            9.034114
          ],
          [
            38.823491,
            9.03391
          ],
          [
            38.823048,
            9.033652
          ],
          [
            38.822679,
            9.033327
          ],
          [
            38.822385,
            9.033041
          ],
          [
            38.822281,
            9.032922
          ],
          [
            38.822055,
            9.032602
          ],
          [
            38.821303,
            9.031356
          ],
          [
            38.820374,
            9.031956
          ],
          [
            38.82019,
            9.032106
          ],
          [
            38.820042,
            9.032314
          ],
          [
            38.819428,
            9.034551
          ],
          [
            38.819248,
            9.035273
          ],
          [
            38.819112,
            9.035702
          ],
          [
            38.818023,
            9.035449
          ],
          [
            38.816616,
            9.035072
          ],
          [
            38.816356,
            9.034985
          ],
          [
            38.815398,
            9.034548
          ],
          [
            38.814633,
            9.034236
          ],
          [
            38.813948,
            9.033991
          ],
          [
            38.813563,
            9.033838
          ],
          [
            38.812887,
            9.03351
          ],
          [
            38.811902,
            9.032897
          ],
          [
            38.810435,
            9.03209
          ],
          [
            38.809395,
            9.031494
          ],
          [
            38.808409,
            9.030975
          ],
          [
            38.808011,
            9.030815
          ],
          [
            38.806766,
            9.030435
          ],
          [
            38.805366,
            9.029864
          ],
          [
            38.804862,
            9.029584
          ],
          [
            38.804694,
            9.029388
          ],
          [
            38.80444,
            9.028975
          ],
          [
            38.804368,
            9.028937
          ],
          [
            38.804255,
            9.028845
          ],
          [
            38.804211,
            9.028828
          ],
          [
            38.804134,
            9.028825
          ],
          [
            38.803904,
            9.028961
          ],
          [
            38.803542,
            9.029131
          ],
          [
            38.803296,
            9.02915
          ],
          [
            38.803134,
            9.029137
          ],
          [
            38.802495,
            9.029023
          ],
          [
            38.800798,
            9.028829
          ],
          [
            38.799555,
            9.02866
          ],
          [
            38.798915,
            9.028709
          ],
          [
            38.797162,
            9.028904
          ],
          [
            38.796791,
            9.028927
          ],
          [
            38.796568,
            9.028908
          ],
          [
            38.796446,
            9.02887
          ],
          [
            38.795575,
            9.028503
          ],
          [
            38.795204,
            9.02842
          ],
          [
            38.794891,
            9.028399
          ],
          [
            38.79373,
            9.028407
          ],
          [
            38.793293,
            9.028391
          ],
          [
            38.792662,
            9.028393
          ],
          [
            38.792366,
            9.028434
          ],
          [
            38.79186,
            9.028568
          ],
          [
            38.791663,
            9.028594
          ],
          [
            38.790975,
            9.028591
          ],
          [
            38.789941,
            9.028549
          ],
          [
            38.789776,
            9.028497
          ],
          [
            38.789693,
            9.028434
          ],
          [
            38.78926,
            9.028677
          ],
          [
            38.788404,
            9.029192
          ],
          [
            38.788091,
            9.028722
          ],
          [
            38.78777,
            9.028189
          ],
          [
            38.787295,
            9.028273
          ],
          [
            38.786801,
            9.028301
          ],
          [
            38.786477,
            9.028295
          ],
          [
            38.785703,
            9.028243
          ],
          [
            38.785275,
            9.028258
          ],
          [
            38.785154,
            9.028283
          ],
          [
            38.784447,
            9.028316
          ],
          [
            38.783828,
            9.028086
          ],
          [
            38.783714,
            9.028029
          ],
          [
            38.783514,
            9.027877
          ],
          [
            38.783021,
            9.027229
          ],
          [
            38.781206,
            9.025221
          ],
          [
            38.780696,
            9.024681
          ],
          [
            38.780609,
            9.024546
          ],
          [
            38.780513,
            9.024207
          ],
          [
            38.7805,
            9.024067
          ],
          [
            38.780542,
            9.023592
          ],
          [
            38.780497,
            9.023498
          ],
          [
            38.780493,
            9.02343
          ],
          [
            38.78051,
            9.023364
          ],
          [
            38.780547,
            9.023307
          ],
          [
            38.780621,
            9.023247
          ],
          [
            38.780664,
            9.023238
          ],
          [
            38.780921,
            9.022804
          ],
          [
            38.78118,
            9.022439
          ],
          [
            38.781413,
            9.022151
          ],
          [
            38.78162,
            9.021936
          ],
          [
            38.781795,
            9.021724
          ],
          [
            38.781927,
            9.021511
          ],
          [
            38.782043,
            9.021195
          ],
          [
            38.782121,
            9.020862
          ],
          [
            38.782344,
            9.019619
          ],
          [
            38.78237,
            9.019291
          ],
          [
            38.78229,
            9.018863
          ],
          [
            38.782004,
            9.017605
          ],
          [
            38.78182,
            9.016306
          ],
          [
            38.781819,
            9.01614
          ],
          [
            38.781678,
            9.015069
          ],
          [
            38.781603,
            9.013694
          ],
          [
            38.781558,
            9.013262
          ],
          [
            38.78147,
            9.012703
          ],
          [
            38.781405,
            9.012429
          ],
          [
            38.781065,
            9.011236
          ],
          [
            38.78065,
            9.009416
          ],
          [
            38.780572,
            9.008996
          ],
          [
            38.780564,
            9.008761
          ],
          [
            38.780574,
            9.008627
          ],
          [
            38.780708,
            9.0082
          ],
          [
            38.780924,
            9.007752
          ],
          [
            38.781019,
            9.007505
          ],
          [
            38.781058,
            9.007358
          ],
          [
            38.781138,
            9.006835
          ],
          [
            38.781155,
            9.006493
          ],
          [
            38.781138,
            9.006273
          ],
          [
            38.781066,
            9.005958
          ],
          [
            38.781022,
            9.005834
          ],
          [
            38.780942,
            9.005687
          ],
          [
            38.780338,
            9.004393
          ],
          [
            38.780048,
            9.00384
          ],
          [
            38.780156,
            9.003741
          ],
          [
            38.780723,
            9.003135
          ],
          [
            38.780459,
            9.002879
          ],
          [
            38.780262,
            9.002723
          ],
          [
            38.780553,
            9.002399
          ]
        ],
        "type": "LineString"
      },
      "properties": {
        "_umap_options": {
          "route": {
            "profile": "driving-car",
            "preference": "recommended",
            "elevation": false,
            "coordinates": [
              [
                38.834009,
                9.037183
              ],
              [
                38.780773,
                9.002592
              ]
            ]
          }
        }
      },
      "id": "6lIUG"
    }
  ]
}